[{"OBJECT_NAME":"HORACIO","OBJECT_ID":"2024-043A","EPOCH":"2026-03-09T21:54:40.867200","MEAN_MOTION":14.98036627,"ECCENTRICITY":0.00104103,"INCLINATION":97.8349,"RA_OF_ASC_NODE":200.1753,"ARG_OF_PERICENTER":2.9871,"MEAN_ANOMALY":357.1411,"EPHEMERIS_TYPE":0,"CLASSIFICATION_TYPE":"U","NORAD_CAT_ID":59098,"ELEMENT_SET_NO":999,"REV_AT_EPOCH":10980,"BSTAR":0.00038157841,"MEAN_MOTION_DOT":4.455e-5,"MEAN_MOTION_DDOT":0},{"OBJECT_NAME":"DELTA 2 R\/B","OBJECT_ID":"1997-020F","EPOCH":"2026-03-09T14:52:17.512032","MEAN_MOTION":14.47826544,"ECCENTRICITY":0.0216711,"INCLINATION":86.8877,"RA_OF_ASC_NODE":264.1722,"ARG_OF_PERICENTER":113.6283,"MEAN_ANOMALY":314.0489,"EPHEMERIS_TYPE":0,"CLASSIFICATION_TYPE":"U","NORAD_CAT_ID":24797,"ELEMENT_SET_NO":999,"REV_AT_EPOCH":51818,"BSTAR":0.00021281,"MEAN_MOTION_DOT":1.089e-5,"MEAN_MOTION_DDOT":0}]
